start=new Date('2022-06-25T00:00:00.000Z').valueOf();
sats=[{"REF_FRAME":"TEME","MEAN_MOTION_DDOT":"0.0000000000000","GP_ID":"206786217","TLE_LINE2":"2 44954  53.0564 265.5194 0001367  67.8411 292.2723 15.06403896136253","SEMIMAJOR_AXIS":"6925.337","CENTER_NAME":"EARTH","MEAN_ANOMALY":"292.2723","NORAD_CAT_ID":"44954","CLASSIFICATION_TYPE":"U","OBJECT_ID":"2020-001AS","ELEMENT_SET_NO":"999","BSTAR":"0.00010933000000","COUNTRY_CODE":"US","APOAPSIS":"548.148","DECAY_DATE":null,"EPHEMERIS_TYPE":"0","OBJECT_NAME":"STARLINK-1066","SITE":"AFETR","MEAN_MOTION":"15.06403896","ECCENTRICITY":"0.00013670","OBJECT_TYPE":"PAYLOAD","FILE":"3501798","ARG_OF_PERICENTER":"67.8411","PERIAPSIS":"546.255","EPOCH":"2022-06-24T13:32:58.740000","RCS_SIZE":"LARGE","MEAN_MOTION_DOT":"0.00001348","LAUNCH_DATE":"2020-01-07","TIME_SYSTEM":"UTC","TLE_LINE1":"1 44954U 20001AS  22175.56456875  .00001348  00000-0  10933-3 0  9997","PERIOD":"95.592","RA_OF_ASC_NODE":"265.5194","MEAN_ELEMENT_THEORY":"SGP4","INCLINATION":"53.0564","REV_AT_EPOCH":"13625"},{"EPOCH":"2022-06-24T13:43:35.549472","RCS_SIZE":"LARGE","FILE":"3501798","ARG_OF_PERICENTER":"59.4280","PERIAPSIS":"546.094","TLE_LINE1":"1 44955U 20001AT  22175.57193923  .00000911  00000-0  80084-4 0  9991","PERIOD":"95.592","MEAN_ELEMENT_THEORY":"SGP4","RA_OF_ASC_NODE":"265.4943","INCLINATION":"53.0540","REV_AT_EPOCH":"13625","MEAN_MOTION_DOT":"0.00000911","TIME_SYSTEM":"UTC","LAUNCH_DATE":"2020-01-07","SITE":"AFETR","DECAY_DATE":null,"EPHEMERIS_TYPE":"0","OBJECT_NAME":"STARLINK-1069","OBJECT_TYPE":"PAYLOAD","MEAN_MOTION":"15.06399487","ECCENTRICITY":"0.00016190","NORAD_CAT_ID":"44955","MEAN_ANOMALY":"300.6868","OBJECT_ID":"2020-001AT","BSTAR":"0.00008008400000","ELEMENT_SET_NO":"999","COUNTRY_CODE":"US","APOAPSIS":"548.336","CLASSIFICATION_TYPE":"U","MEAN_MOTION_DDOT":"0.0000000000000","GP_ID":"206784965","TLE_LINE2":"2 44955  53.0540 265.4943 0001619  59.4280 300.6868 15.06399487136254","SEMIMAJOR_AXIS":"6925.350","REF_FRAME":"TEME","CENTER_NAME":"EARTH"},{"COUNTRY_CODE":"US","APOAPSIS":"548.085","OBJECT_ID":"2020-001AU","ELEMENT_SET_NO":"999","BSTAR":"0.00011014000000","CLASSIFICATION_TYPE":"U","NORAD_CAT_ID":"44956","MEAN_ANOMALY":"274.2459","CENTER_NAME":"EARTH","TLE_LINE2":"2 44956  53.0534 265.5018 0001219  85.8669 274.2459 15.06390966136314","SEMIMAJOR_AXIS":"6925.376","MEAN_MOTION_DDOT":"0.0000000000000","GP_ID":"206785215","REF_FRAME":"TEME","INCLINATION":"53.0534","REV_AT_EPOCH":"13631","TLE_LINE1":"1 44956U 20001AU  22175.56730927  .00001359  00000-0  11014-3 0  9995","MEAN_ELEMENT_THEORY":"SGP4","PERIOD":"95.593","RA_OF_ASC_NODE":"265.5018","TIME_SYSTEM":"UTC","LAUNCH_DATE":"2020-01-07","MEAN_MOTION_DOT":"0.00001359","RCS_SIZE":"LARGE","EPOCH":"2022-06-24T13:36:55.520928","ARG_OF_PERICENTER":"85.8669","PERIAPSIS":"546.397","FILE":"3501798","OBJECT_TYPE":"PAYLOAD","ECCENTRICITY":"0.00012190","MEAN_MOTION":"15.06390966","SITE":"AFETR","OBJECT_NAME":"STARLINK-1070","DECAY_DATE":null,"EPHEMERIS_TYPE":"0"},{"CENTER_NAME":"EARTH","REF_FRAME":"TEME","GP_ID":"206730354","MEAN_MOTION_DDOT":"0.0000000000000","SEMIMAJOR_AXIS":"6925.389","TLE_LINE2":"2 44957  53.0538 265.6827 0001440  78.0977 282.0173 15.06386884136303","CLASSIFICATION_TYPE":"U","BSTAR":"0.00004374200000","ELEMENT_SET_NO":"999","OBJECT_ID":"2020-001AV","APOAPSIS":"548.251","COUNTRY_CODE":"US","MEAN_ANOMALY":"282.0173","NORAD_CAT_ID":"44957","MEAN_MOTION":"15.06386884","ECCENTRICITY":"0.00014400","OBJECT_TYPE":"PAYLOAD","EPHEMERIS_TYPE":"0","DECAY_DATE":null,"OBJECT_NAME":"STARLINK-1074","SITE":"AFETR","MEAN_MOTION_DOT":"0.00000370","LAUNCH_DATE":"2020-01-07","TIME_SYSTEM":"UTC","MEAN_ELEMENT_THEORY":"SGP4","PERIOD":"95.593","RA_OF_ASC_NODE":"265.6827","TLE_LINE1":"1 44957U 20001AV  22175.52677430  .00000370  00000-0  43742-4 0  9997","REV_AT_EPOCH":"13630","INCLINATION":"53.0538","FILE":"3501331","PERIAPSIS":"546.257","ARG_OF_PERICENTER":"78.0977","EPOCH":"2022-06-24T12:38:33.299520","RCS_SIZE":"LARGE"},{"NORAD_CAT_ID":"44959","MEAN_ANOMALY":"304.9197","COUNTRY_CODE":"US","APOAPSIS":"548.481","OBJECT_ID":"2020-001AX","ELEMENT_SET_NO":"999","BSTAR":"-0.00004885100000","CLASSIFICATION_TYPE":"U","TLE_LINE2":"2 44959  53.0547 265.0228 0001729  55.1954 304.9197 15.06377064136327","SEMIMAJOR_AXIS":"6925.419","MEAN_MOTION_DDOT":"0.0000000000000","GP_ID":"206785717","REF_FRAME":"TEME","CENTER_NAME":"EARTH","RCS_SIZE":"LARGE","EPOCH":"2022-06-24T16:12:14.215392","ARG_OF_PERICENTER":"55.1954","PERIAPSIS":"546.086","FILE":"3501798","INCLINATION":"53.0547","REV_AT_EPOCH":"13632","TLE_LINE1":"1 44959U 20001AX  22175.67516453 -.00001009  00000-0 -48851-4 0  9990","RA_OF_ASC_NODE":"265.0228","PERIOD":"95.594","MEAN_ELEMENT_THEORY":"SGP4","LAUNCH_DATE":"2020-01-07","TIME_SYSTEM":"UTC","MEAN_MOTION_DOT":"-0.00001009","SITE":"AFETR","OBJECT_NAME":"STARLINK-1076","DECAY_DATE":null,"EPHEMERIS_TYPE":"0","OBJECT_TYPE":"PAYLOAD","ECCENTRICITY":"0.00017290","MEAN_MOTION":"15.06377064"},{"SITE":"AFETR","DECAY_DATE":null,"EPHEMERIS_TYPE":"0","OBJECT_NAME":"STARLINK-1080","OBJECT_TYPE":"PAYLOAD","MEAN_MOTION":"15.06391644","ECCENTRICITY":"0.00012850","EPOCH":"2022-06-24T14:47:17.416320","RCS_SIZE":"LARGE","FILE":"3501798","ARG_OF_PERICENTER":"83.1617","PERIAPSIS":"546.349","TLE_LINE1":"1 44961U 20001AZ  22175.61617380  .00000051  00000-0  22344-4 0  9991","MEAN_ELEMENT_THEORY":"SGP4","PERIOD":"95.593","RA_OF_ASC_NODE":"265.3035","INCLINATION":"53.0540","REV_AT_EPOCH":"13632","MEAN_MOTION_DOT":"0.00000051","LAUNCH_DATE":"2020-01-07","TIME_SYSTEM":"UTC","MEAN_MOTION_DDOT":"0.0000000000000","GP_ID":"206784465","TLE_LINE2":"2 44961  53.0540 265.3035 0001285  83.1617 276.9518 15.06391644136321","SEMIMAJOR_AXIS":"6925.374","REF_FRAME":"TEME","CENTER_NAME":"EARTH","NORAD_CAT_ID":"44961","MEAN_ANOMALY":"276.9518","OBJECT_ID":"2020-001AZ","BSTAR":"0.00002234400000","ELEMENT_SET_NO":"999","COUNTRY_CODE":"US","APOAPSIS":"548.129","CLASSIFICATION_TYPE":"U"},{"MEAN_MOTION":"15.15669418","ECCENTRICITY":"0.00012500","OBJECT_TYPE":"PAYLOAD","EPHEMERIS_TYPE":"0","DECAY_DATE":null,"OBJECT_NAME":"STARLINK-1085","SITE":"AFETR","MEAN_MOTION_DOT":"0.00012718","TIME_SYSTEM":"UTC","LAUNCH_DATE":"2020-01-07","PERIOD":"95.008","MEAN_ELEMENT_THEORY":"SGP4","RA_OF_ASC_NODE":"251.1210","TLE_LINE1":"1 44963U 20001BB  22175.90038991  .00012718  00000-0  67529-3 0  9996","REV_AT_EPOCH":"13724","INCLINATION":"52.9976","FILE":"3501798","PERIAPSIS":"518.087","ARG_OF_PERICENTER":"14.1949","EPOCH":"2022-06-24T21:36:33.688224","RCS_SIZE":"LARGE","CENTER_NAME":"EARTH","REF_FRAME":"TEME","GP_ID":"206784715","MEAN_MOTION_DDOT":"0.0000000000000","SEMIMAJOR_AXIS":"6897.084","TLE_LINE2":"2 44963  52.9976 251.1210 0001250  14.1949 345.9078 15.15669418137243","CLASSIFICATION_TYPE":"U","ELEMENT_SET_NO":"999","BSTAR":"0.00067529000000","OBJECT_ID":"2020-001BB","APOAPSIS":"519.811","COUNTRY_CODE":"US","MEAN_ANOMALY":"345.9078","NORAD_CAT_ID":"44963"},{"OBJECT_TYPE":"PAYLOAD","MEAN_MOTION":"15.06396064","ECCENTRICITY":"0.00014070","SITE":"AFETR","DECAY_DATE":null,"EPHEMERIS_TYPE":"0","OBJECT_NAME":"STARLINK-1086","TLE_LINE1":"1 44964U 20001BC  22175.64566571 -.00000323  00000-0 -27946-5 0  9990","RA_OF_ASC_NODE":"265.1510","PERIOD":"95.592","MEAN_ELEMENT_THEORY":"SGP4","INCLINATION":"53.0549","REV_AT_EPOCH":"13632","MEAN_MOTION_DOT":"-0.00000323","TIME_SYSTEM":"UTC","LAUNCH_DATE":"2020-01-07","EPOCH":"2022-06-24T15:29:45.517344","RCS_SIZE":"LARGE","FILE":"3501798","ARG_OF_PERICENTER":"82.6216","PERIAPSIS":"546.251","CENTER_NAME":"EARTH","MEAN_MOTION_DDOT":"0.0000000000000","GP_ID":"206785967","TLE_LINE2":"2 44964  53.0549 265.1510 0001407  82.6216 277.4933 15.06396064136322","SEMIMAJOR_AXIS":"6925.361","REF_FRAME":"TEME","OBJECT_ID":"2020-001BC","BSTAR":"-0.00000279460000","ELEMENT_SET_NO":"999","COUNTRY_CODE":"US","APOAPSIS":"548.200","CLASSIFICATION_TYPE":"U","NORAD_CAT_ID":"44964","MEAN_ANOMALY":"277.4933"},{"SEMIMAJOR_AXIS":"6925.363","TLE_LINE2":"2 44966  53.0550 265.0707 0001320  79.7523 280.3615 15.06395206136322","GP_ID":"206786218","MEAN_MOTION_DDOT":"0.0000000000000","REF_FRAME":"TEME","CENTER_NAME":"EARTH","NORAD_CAT_ID":"44966","MEAN_ANOMALY":"280.3615","APOAPSIS":"548.142","COUNTRY_CODE":"US","BSTAR":"0.00003057900000","ELEMENT_SET_NO":"999","OBJECT_ID":"2020-001BE","CLASSIFICATION_TYPE":"U","SITE":"AFETR","OBJECT_NAME":"STARLINK-1088","EPHEMERIS_TYPE":"0","DECAY_DATE":null,"OBJECT_TYPE":"PAYLOAD","ECCENTRICITY":"0.00013200","MEAN_MOTION":"15.06395206","RCS_SIZE":"LARGE","EPOCH":"2022-06-24T16:01:35.843808","PERIAPSIS":"546.314","ARG_OF_PERICENTER":"79.7523","FILE":"3501798","REV_AT_EPOCH":"13632","INCLINATION":"53.0550","PERIOD":"95.592","MEAN_ELEMENT_THEORY":"SGP4","RA_OF_ASC_NODE":"265.0707","TLE_LINE1":"1 44966U 20001BE  22175.66777597  .00000174  00000-0  30579-4 0  9993","TIME_SYSTEM":"UTC","LAUNCH_DATE":"2020-01-07","MEAN_MOTION_DOT":"0.00000174"},{"SITE":"AFETR","EPHEMERIS_TYPE":"0","DECAY_DATE":null,"OBJECT_NAME":"STARLINK-1089","OBJECT_TYPE":"PAYLOAD","MEAN_MOTION":"15.06380733","ECCENTRICITY":"0.00014510","EPOCH":"2022-06-24T13:22:23.337120","RCS_SIZE":"LARGE","FILE":"3501340","PERIAPSIS":"546.268","ARG_OF_PERICENTER":"63.9149","PERIOD":"95.593","MEAN_ELEMENT_THEORY":"SGP4","RA_OF_ASC_NODE":"265.5586","TLE_LINE1":"1 44967U 20001BF  22175.55721455 -.00001042  00000-0 -51123-4 0  9999","REV_AT_EPOCH":"13631","INCLINATION":"53.0539","MEAN_MOTION_DOT":"-0.00001042","TIME_SYSTEM":"UTC","LAUNCH_DATE":"2020-01-07","GP_ID":"206730395","MEAN_MOTION_DDOT":"0.0000000000000","SEMIMAJOR_AXIS":"6925.408","TLE_LINE2":"2 44967  53.0539 265.5586 0001451  63.9149 296.1989 15.06380733136311","REF_FRAME":"TEME","CENTER_NAME":"EARTH","NORAD_CAT_ID":"44967","MEAN_ANOMALY":"296.1989","ELEMENT_SET_NO":"999","BSTAR":"-0.00005112300000","OBJECT_ID":"2020-001BF","APOAPSIS":"548.277","COUNTRY_CODE":"US","CLASSIFICATION_TYPE":"U"}];
